{
"type": "FeatureCollection",
"name": "col_americana",
"crs": { "type": "name", "properties": { "name": "urn:ogc:def:crs:OGC:1.3:CRS84" } },
"features": [
{ "type": "Feature", "properties": { "geoid": 348, "MUNICIPIO": "Guadalajara", "NOMCOL1": "Moderna", "Tipo": "Colonia", "POBTOT": 4015.0 }, "geometry": { "type": "Polygon", "coordinates": [ [ [ -103.369625927147112, 20.663227134591217 ], [ -103.37057170048439, 20.66359098525681 ], [ -103.372540664376118, 20.664348448254707 ], [ -103.373442760685208, 20.664694745255364 ], [ -103.376182161163158, 20.665690440018 ], [ -103.377325913676358, 20.666106145424205 ], [ -103.378660063318591, 20.666591039918156 ], [ -103.379269451507724, 20.666812516692367 ], [ -103.378659244805974, 20.666817424734038 ], [ -103.376201675122815, 20.666837169682076 ], [ -103.374829235299458, 20.666851507594444 ], [ -103.373238375078159, 20.666868570711642 ], [ -103.372459437184602, 20.66687692001911 ], [ -103.371496378878589, 20.666895942762725 ], [ -103.370412260155618, 20.666917350290799 ], [ -103.368973984387551, 20.666945740625032 ], [ -103.368783574877909, 20.667111469715348 ], [ -103.368651505806923, 20.667203980903103 ], [ -103.368317143923548, 20.667198479549612 ], [ -103.36820100136741, 20.667165175000829 ], [ -103.367949735089439, 20.666926006396295 ], [ -103.367056412200213, 20.666905363648919 ], [ -103.366251466797863, 20.666888277092522 ], [ -103.3659761742109, 20.666882432601351 ], [ -103.365010801373487, 20.66686193416021 ], [ -103.363669142462527, 20.666833436798552 ], [ -103.363368362283694, 20.666827081900298 ], [ -103.361810756881667, 20.666794794124016 ], [ -103.360484166296473, 20.66678895490438 ], [ -103.359432667009884, 20.666784319295612 ], [ -103.358264826897283, 20.666464364174328 ], [ -103.357359386683996, 20.666216292941925 ], [ -103.356554148841937, 20.665994233971631 ], [ -103.355805845259425, 20.665744427937305 ], [ -103.355621329884059, 20.665676699249243 ], [ -103.354749769514271, 20.66545632317484 ], [ -103.353889015681389, 20.665191479783353 ], [ -103.352985381105228, 20.664925774073232 ], [ -103.352054714880509, 20.664656329604316 ], [ -103.351148829420012, 20.664394053978505 ], [ -103.350160172331528, 20.664107807637418 ], [ -103.349366655776237, 20.663878055639003 ], [ -103.348252886350934, 20.663514744190639 ], [ -103.348790532901418, 20.66248281729915 ], [ -103.349809249980552, 20.660348479151384 ], [ -103.350664354925598, 20.658376985077687 ], [ -103.351084012014937, 20.657409419067733 ], [ -103.35114302081378, 20.657262293876556 ], [ -103.351526185293707, 20.65605747694228 ], [ -103.351696127385509, 20.655685054631167 ], [ -103.352018888471548, 20.654977728697062 ], [ -103.352354720787929, 20.65511879943168 ], [ -103.354026064921541, 20.655926059340167 ], [ -103.354119419120877, 20.656812463778575 ], [ -103.35420822106083, 20.65685765542062 ], [ -103.355015816336149, 20.657268640469209 ], [ -103.355540506624308, 20.65753565211471 ], [ -103.355796246590842, 20.657665795712386 ], [ -103.356638878353536, 20.65809459874199 ], [ -103.357231206875781, 20.658326048845542 ], [ -103.358161082488337, 20.658689388794539 ], [ -103.358273219579132, 20.658733204839059 ], [ -103.359413732494659, 20.659178839324461 ], [ -103.361560115278095, 20.659973909415722 ], [ -103.362828477929867, 20.660506941603163 ], [ -103.364308835717225, 20.661095913242118 ], [ -103.366102653561299, 20.661882862265767 ], [ -103.366936537507698, 20.662212460513906 ], [ -103.368672670279949, 20.662872292123897 ], [ -103.369625927147112, 20.663227134591217 ] ] ] } }
]
}
